     2.100          NAVIGATION                              RINEX VERSION / TYPE
fic2rin                                 07/18/2015 00:15:41 PGM / RUN BY / DATE
                                                            END OF HEADER
13 15  7 17  6  0  0.0 -.132843852043D-03 -.329691829393D-11  .000000000000D+00
     .270000000000D+02 -.304062500000D+02  .459983445871D-08  .296452438765D+00
    -.156834721565D-05  .490485457703D-02  .746734440327D-05  .515367726707D+04
     .453600000000D+06 -.447034835815D-07 -.606308359725D+00 -.260770320892D-07
     .973690779478D+00  .243250000000D+03  .210014851294D+01 -.804033491222D-08
    -.537879547699D-09  .100000000000D+01  .185300000000D+04  .000000000000D+00
     .240000000000D+01  .000000000000D+00 -.111758708954D-07  .270000000000D+02
     .446406000000D+06  .400000000000D+01
14 15  7 17  6  0  0.0  .483933836222D-04 -.272848410532D-11  .000000000000D+00
     .360000000000D+02 -.326875000000D+02  .456840457810D-08  .224441104283D+01
    -.187009572983D-05  .836651818827D-02  .744871795177D-05  .515362066650D+04
     .453600000000D+06 -.223517417908D-07 -.641241070402D+00 -.137835741043D-06
     .966151065007D+00  .237156250000D+03 -.197299836342D+01 -.786532762247D-08
    -.617882880159D-09  .100000000000D+01  .185300000000D+04  .000000000000D+00
     .240000000000D+01  .000000000000D+00 -.931322574615D-08  .360000000000D+02
     .446406000000D+06  .400000000000D+01
15 15  7 17  6  0  0.0 -.260904431343D-03 -.204636307899D-11  .000000000000D+00
     .270000000000D+02 -.355937500000D+02  .568487965520D-08  .158084727035D+01
    -.162422657013D-05  .721713167150D-02  .609457492828D-05  .515367017174D+04
     .453600000000D+06 -.130385160446D-07 -.767011291728D+00  .171363353729D-06
     .932720314768D+00  .248937500000D+03  .392671194091D+00 -.861321591787D-08
    -.531450708484D-09  .100000000000D+01  .185300000000D+04  .000000000000D+00
     .240000000000D+01  .000000000000D+00 -.107102096081D-07  .270000000000D+02
     .446406000000D+06  .400000000000D+01
16 15  7 17  6  0  0.0 -.107700936496D-03  .409272615798D-11  .000000000000D+00
     .510000000000D+02  .759062500000D+02  .395373611755D-08 -.305338239459D+01
     .384636223316D-05  .811492232606D-02  .234320759773D-05  .515358728218D+04
     .453600000000D+06  .186264514923D-08  .144240156168D+01 -.596046447754D-07
     .990183625740D+00  .351781250000D+03  .321323155005D+00 -.798461830569D-08
     .225366530278D-09  .100000000000D+01  .185300000000D+04  .000000000000D+00
     .240000000000D+01  .000000000000D+00 -.102445483208D-07  .510000000000D+02
     .446406000000D+06  .400000000000D+01
17 15  7 17  6  0  0.0 -.180436763912D-03 -.159161572810D-11  .000000000000D+00
     .870000000000D+02 -.109468750000D+03  .414088677027D-08  .223713320094D+01
    -.567547976971D-05  .101470522350D-01  .394508242607D-05  .515379438782D+04
     .453600000000D+06  .726431608200D-07  .246875387369D+01 -.186264514923D-06
     .973115422575D+00  .309156250000D+03 -.200735355061D+01 -.802819154926D-08
    -.221794952936D-09  .100000000000D+01  .185300000000D+04  .000000000000D+00
     .240000000000D+01  .000000000000D+00 -.107102096081D-07  .870000000000D+02
     .446406000000D+06  .400000000000D+01
18 15  7 17  6  0  0.0  .417876057327D-03  .306954461848D-11  .000000000000D+00
     .690000000000D+02  .409375000000D+02  .567773650052D-08 -.247727868648D+01
     .199675559998D-05  .163599776570D-01  .555068254471D-05  .515361286354D+04
     .453600000000D+06  .270083546638D-06 -.178711548794D+01  .428408384323D-07
     .924643849802D+00  .248812500000D+03 -.194698775458D+01 -.836820571221D-08
     .622883088438D-09  .100000000000D+01  .185300000000D+04  .000000000000D+00
     .240000000000D+01  .000000000000D+00 -.111758708954D-07  .690000000000D+02
     .446406000000D+06  .400000000000D+01
19 15  7 17  6  0  0.0 -.516089610755D-03 -.909494701773D-12  .000000000000D+00
     .120000000000D+02 -.110125000000D+03  .431767984870D-08  .143505066751D+01
    -.571459531784D-05  .115933261113D-01  .521726906300D-05  .515375138283D+04
     .453600000000D+06 -.130385160446D-06  .251819396553D+01  .126659870148D-06
     .970225961874D+00  .286531250000D+03  .581134975976D+00 -.823427156189D-08
    -.411802867528D-09  .100000000000D+01  .185300000000D+04  .000000000000D+00
     .240000000000D+01  .000000000000D+00 -.149011611938D-07  .120000000000D+02
     .446406000000D+06  .400000000000D+01
20 15  7 17  6  0  0.0  .339062418789D-03  .318323145621D-11  .000000000000D+00
     .470000000000D+02  .341562500000D+02  .569059417895D-08  .164246690274D+01
     .177696347237D-05  .477941171266D-02  .654719769955D-05  .515360827637D+04
     .453600000000D+06 -.160187482834D-06 -.183940360186D+01 -.106170773506D-06
     .925873480724D+00  .235968750000D+03  .117904123687D+01 -.855035615665D-08
     .567523639638D-09  .100000000000D+01  .185300000000D+04  .000000000000D+00
     .240000000000D+01  .000000000000D+00 -.838190317154D-08  .470000000000D+02
     .446406000000D+06  .400000000000D+01
21 15  7 17  6  0  0.0 -.464384444058D-03 -.318323145621D-11  .000000000000D+00
     .430000000000D+02 -.403750000000D+02  .477948479901D-08 -.142619780558D+01
    -.173598527908D-05  .224792953813D-01  .109542161226D-04  .515379606247D+04
     .453600000000D+06  .350177288055D-06 -.283013657528D+01  .484287738800D-06
     .934654854229D+00  .148718750000D+03 -.189319721647D+01 -.803176312660D-08
     .324656380384D-09  .100000000000D+01  .185300000000D+04  .000000000000D+00
     .240000000000D+01  .000000000000D+00 -.116415321827D-07  .430000000000D+02
     .446406000000D+06  .400000000000D+01
22 15  7 17  6  0  0.0  .371855683625D-03  .386535248253D-11  .000000000000D+00
     .850000000000D+02  .408750000000D+02  .578952687132D-08 -.294572958274D+01
     .193901360035D-05  .804167974275D-02  .574067234993D-05  .515368077087D+04
     .453600000000D+06  .134110450745D-06 -.178603903917D+01 -.104308128357D-06
     .922461723159D+00  .248968750000D+03 -.203816134725D+01 -.851821196058D-08
     .502163774280D-09  .100000000000D+01  .185300000000D+04  .000000000000D+00
     .340000000000D+01  .000000000000D+00 -.176951289177D-07  .850000000000D+02
     .446406000000D+06  .400000000000D+01
23 15  7 17  6  0  0.0 -.121476594359D-03 -.238742359215D-11  .000000000000D+00
     .440000000000D+02 -.260625000000D+02  .526807657939D-08  .110932729045D+01
    -.109337270260D-05  .104241186054D-01  .688806176186D-05  .515358428001D+04
     .453600000000D+06  .130385160446D-07 -.714031409200D+00  .134110450745D-06
     .947933972295D+00  .241156250000D+03 -.265350998333D+01 -.841963642594D-08
    -.666813489744D-09  .100000000000D+01  .185300000000D+04  .000000000000D+00
     .240000000000D+01  .000000000000D+00 -.200234353542D-07  .440000000000D+02
     .446406000000D+06  .400000000000D+01
24 15  7 17  6  0  0.0 -.146776437759D-05 -.682121026330D-12  .000000000000D+00
     .470000000000D+02  .565625000000D+02  .449197282298D-08  .371289702781D+00
     .297650694847D-05  .325828068890D-02  .110603868961D-04  .515367160988D+04
     .453600000000D+06  .335276126862D-07  .312281123145D+00  .316649675369D-07
     .953327101717D+00  .158000000000D+03  .348307327050D+00 -.796997483859D-08
    -.298226708054D-09  .100000000000D+01  .185300000000D+04  .000000000000D+00
     .240000000000D+01  .000000000000D+00  .232830643654D-08  .470000000000D+02
     .446406000000D+06  .400000000000D+01
25 15  7 17  6  0  0.0 -.139726325870D-04 -.454747350886D-11  .000000000000D+00
     .690000000000D+02  .795000000000D+02  .411767151755D-08 -.168424251660D+01
     .420771539211D-05  .465238268953D-02  .317767262459D-05  .515365663528D+04
     .453600000000D+06  .558793544769D-07  .137646544905D+01 -.800937414169D-07
     .978139317326D+00  .329468750000D+03  .755289767410D+00 -.805926427213D-08
     .188222125921D-09  .100000000000D+01  .185300000000D+04  .000000000000D+00
     .240000000000D+01  .000000000000D+00  .512227416039D-08  .690000000000D+02
     .446406000000D+06  .400000000000D+01
26 15  7 17  6  0  0.0 -.995164737105D-05 -.557065504836D-11  .000000000000D+00
     .450000000000D+02  .837187500000D+02  .461590655675D-08  .276236530945D+01
     .441633164883D-05  .296520884149D-03  .248476862907D-05  .515360194206D+04
     .453600000000D+06  .651925802231D-07  .137299999654D+01  .100582838058D-06
     .960245985940D+00  .332187500000D+03  .127679101789D+01 -.834177603988D-08
     .234295473633D-09  .100000000000D+01  .185300000000D+04  .000000000000D+00
     .240000000000D+01  .000000000000D+00  .745058059692D-08  .450000000000D+02
     .446406000000D+06  .400000000000D+01
27 15  7 17  6  0  0.0  .489270314574D-05  .284217094304D-11  .000000000000D+00
     .770000000000D+02 -.102281250000D+03  .437661087484D-08  .226975186487D+01
    -.530481338501D-05  .259838346392D-02  .402890145779D-05  .515369748688D+04
     .453600000000D+06 -.614672899246D-07  .242067553330D+01  .204890966415D-07
     .967983222147D+00  .304093750000D+03  .290002978622D+00 -.822284251440D-08
    -.261439461432D-09  .100000000000D+01  .185300000000D+04  .000000000000D+00
     .240000000000D+01  .000000000000D+00  .139698386192D-08  .770000000000D+02
     .446406000000D+06  .400000000000D+01
28 15  7 17  6  0  0.0  .454133376479D-03  .261479726760D-11  .000000000000D+00
     .290000000000D+02  .848750000000D+02  .389159067180D-08  .311095184466D+01
     .439025461674D-05  .195626682835D-01  .252947211266D-05  .515369619942D+04
     .453600000000D+06  .203028321266D-06  .144770262381D+01 -.800937414169D-07
     .988809338552D+00  .343718750000D+03 -.166041533933D+01 -.770567811528D-08
     .232152527227D-09  .100000000000D+01  .185300000000D+04  .000000000000D+00
     .240000000000D+01  .000000000000D+00 -.111758708954D-07  .290000000000D+02
     .446406000000D+06  .400000000000D+01
